{
    "links": {
        "self": "http://www.neowsapp.com/rest/v1/neo/3687145?api_key=iIulBulltgU6a56xZRHN4H3l9WmuAYTsLGpBGhQ2"
    },
    "id": "3687145",
    "neo_reference_id": "3687145",
    "name": "(2014 RD17)",
    "designation": "2014 RD17",
    "nasa_jpl_url": "http://ssd.jpl.nasa.gov/sbdb.cgi?sstr=3687145",
    "absolute_magnitude_h": 24.2,
    "estimated_diameter": {
        "kilometers": {
            "estimated_diameter_min": 0.0384197891,
            "estimated_diameter_max": 0.0859092601
        },
        "meters": {
            "estimated_diameter_min": 38.4197891064,
            "estimated_diameter_max": 85.9092601232
        },
        "miles": {
            "estimated_diameter_min": 0.0238729428,
            "estimated_diameter_max": 0.0533815229
        },
        "feet": {
            "estimated_diameter_min": 126.0491808919,
            "estimated_diameter_max": 281.8545369825
        }
    },
    "is_potentially_hazardous_asteroid": false,
    "close_approach_data": [
        {
            "close_approach_date": "2014-09-02",
            "close_approach_date_full": "2014-Sep-02 05:07",
            "epoch_date_close_approach": 1409634420000,
            "relative_velocity": {
                "kilometers_per_second": "10.2902566702",
                "kilometers_per_hour": "37044.9240126383",
                "miles_per_hour": "23018.2751455196"
            },
            "miss_distance": {
                "astronomical": "0.0337477003",
                "lunar": "13.1278554167",
                "kilometers": "5048584.082278361",
                "miles": "3137044.6820329418"
            },
            "orbiting_body": "Earth"
        }
    ],
    "orbital_data": {
        "orbit_id": "7",
        "orbit_determination_date": "2017-04-06 08:38:44",
        "first_observation_date": "2014-09-12",
        "last_observation_date": "2014-09-19",
        "data_arc_in_days": 7,
        "observations_used": 43,
        "orbit_uncertainty": "8",
        "minimum_orbit_intersection": ".013886",
        "jupiter_tisserand_invariant": "3.315",
        "epoch_osculation": "2456914.5",
        "eccentricity": ".5773767851855139",
        "semi_major_axis": "2.340942286988899",
        "inclination": "4.599109787247147",
        "ascending_node_longitude": "341.5862916577526",
        "orbital_period": "1308.231153982059",
        "perihelion_distance": ".9893365550224236",
        "perihelion_argument": "329.1163091086931",
        "aphelion_distance": "3.692548018955374",
        "perihelion_time": "2456880.325813247801",
        "mean_anomaly": "9.40407755414175",
        "mean_motion": ".275180726971846",
        "equinox": "J2000",
        "orbit_class": {
            "orbit_class_type": "APO",
            "orbit_class_description": "Near-Earth asteroid orbits which cross the Earth’s orbit similar to that of 1862 Apollo",
            "orbit_class_range": "a (semi-major axis) > 1.0 AU; q (perihelion) < 1.017 AU"
        }
    },
    "is_sentry_object": false
}